[{"OBJECT_NAME":"STARLINK-6174","OBJECT_ID":"2023-099AQ","EPOCH":"2026-03-09T12:51:13.580640","MEAN_MOTION":15.02534038,"ECCENTRICITY":0.00011599,"INCLINATION":43.0019,"RA_OF_ASC_NODE":236.7563,"ARG_OF_PERICENTER":268.2572,"MEAN_ANOMALY":91.8137,"EPHEMERIS_TYPE":0,"CLASSIFICATION_TYPE":"U","NORAD_CAT_ID":57366,"ELEMENT_SET_NO":999,"REV_AT_EPOCH":14624,"BSTAR":3.867888e-6,"MEAN_MOTION_DOT":-1.51e-6,"MEAN_MOTION_DDOT":0},{"OBJECT_NAME":"SL-16 DEB","OBJECT_ID":"1992-093Q","EPOCH":"2026-03-09T20:54:01.402848","MEAN_MOTION":15.00181451,"ECCENTRICITY":0.00550249,"INCLINATION":71.1124,"RA_OF_ASC_NODE":226.4429,"ARG_OF_PERICENTER":133.8558,"MEAN_ANOMALY":343.0626,"EPHEMERIS_TYPE":0,"CLASSIFICATION_TYPE":"U","NORAD_CAT_ID":22327,"ELEMENT_SET_NO":999,"REV_AT_EPOCH":74843,"BSTAR":0.0011337635,"MEAN_MOTION_DOT":0.00014594,"MEAN_MOTION_DDOT":0}]
